{"type": "FeatureCollection", "features": [ {"type": "Feature", "properties": {"norad_id": 31716, "name": "FENGYUN 1C DEB", "group": "fengyun-1c-debris", "lat": 73.94726391949065, "lon": -139.94743185050478, "alt_km": 779.2687646614813, "timestamp": "2025-12-18T23:35:49.344339+00:00", "meta": {"OBJECT_NAME": "FENGYUN 1C DEB", "OBJECT_ID": "1999-025CDP", "EPOCH": "2025-12-18T05:07:46.520832", "MEAN_MOTION": 14.03631041, "ECCENTRICITY": 0.01308082, "INCLINATION": 98.5551, "RA_OF_ASC_NODE": 250.8713, "ARG_OF_PERICENTER": 75.9481, "MEAN_ANOMALY": 74.3189, "EPHEMERIS_TYPE": 0, "CLASSIFICATION_TYPE": "U", "NORAD_CAT_ID": 31716, "ELEMENT_SET_NO": 999, "REV_AT_EPOCH": 94196, "BSTAR": 0.0011575331, "MEAN_MOTION_DOT": 1.922e-05, "MEAN_MOTION_DDOT": 0}, "tle": {"line1": "1 31716U 99025CDP 25352.21373288  .00001922  00000+0  11575-2 0  9998", "line2": "2 31716  98.5551 250.8713 0130808  75.9481  74.3189 14.03631041941967"}}, "geometry": {"type": "Point", "coordinates": [-139.94743185050478, 73.94726391949065]}}, {"type": "Feature", "properties": {"norad_id": 31720, "name": "FENGYUN 1C DEB", "group": "fengyun-1c-debris", "lat": -42.70559427826681, "lon": -85.94368873359528, "alt_km": 721.0210726053474, "timestamp": "2025-12-18T23:35:49.344349+00:00", "meta": {"OBJECT_NAME": "FENGYUN 1C DEB", "OBJECT_ID": "1999-025CDT", "EPOCH": "2025-12-17T00:28:52.679424", "MEAN_MOTION": 14.71860526, "ECCENTRICITY": 0.01002517, "INCLINATION": 99.048, "RA_OF_ASC_NODE": 263.4173, "ARG_OF_PERICENTER": 110.3863, "MEAN_ANOMALY": 250.8144, "EPHEMERIS_TYPE": 0, "CLASSIFICATION_TYPE": "U", "NORAD_CAT_ID": 31720, "ELEMENT_SET_NO": 999, "REV_AT_EPOCH": 98299, "BSTAR": 0.00056875806, "MEAN_MOTION_DOT": 3.786e-05, "MEAN_MOTION_DDOT": 0}, "tle": {"line1": "1 31720U 99025CDT 25351.02005416  .00003786  00000+0  56876-3 0  9990", "line2": "2 31720  99.0480 263.4173 0100251 110.3863 250.8144 14.71860526982993"}}, "geometry": {"type": "Point", "coordinates": [-85.94368873359528, -42.70559427826681]}}, {"type": "Feature", "properties": {"norad_id": 31721, "name": "FENGYUN 1C DEB", "group": "fengyun-1c-debris", "lat": -1.007514618813613, "lon": -27.0694430256891, "alt_km": 1217.5891853612802, "timestamp": "2025-12-18T23:35:49.344360+00:00", "meta": {"OBJECT_NAME": "FENGYUN 1C DEB", "OBJECT_ID": "1999-025CDU", "EPOCH": "2025-12-14T04:19:36.790752", "MEAN_MOTION": 13.73779302, "ECCENTRICITY": 0.03174412, "INCLINATION": 99.7811, "RA_OF_ASC_NODE": 327.8381, "ARG_OF_PERICENTER": 179.7828, "MEAN_ANOMALY": 199.0539, "EPHEMERIS_TYPE": 0, "CLASSIFICATION_TYPE": "U", "NORAD_CAT_ID": 31721, "ELEMENT_SET_NO": 999, "REV_AT_EPOCH": 67406, "BSTAR": 0.00045246287, "MEAN_MOTION_DOT": 5.63e-06, "MEAN_MOTION_DDOT": 0}, "tle": {"line1": "1 31721U 99025CDU 25348.18028693  .00000563  00000+0  45246-3 0  9995", "line2": "2 31721  99.7811 327.8381 0317441 179.7828 199.0539 13.73779302674066"}}, "geometry": {"type": "Point", "coordinates": [-27.0694430256891, -1.007514618813613]}}, {"type": "Feature", "properties": {"norad_id": 31724, "name": "FENGYUN 1C DEB", "group": "fengyun-1c-debris", "lat": 66.90663692844144, "lon": -20.35276161221197, "alt_km": 818.7926423393883, "timestamp": "2025-12-18T23:35:49.344370+00:00", "meta": {"OBJECT_NAME": "FENGYUN 1C DEB", "OBJECT_ID": "1999-025CDX", "EPOCH": "2025-12-18T06:42:13.489056", "MEAN_MOTION": 14.4921063, "ECCENTRICITY": 0.01518175, "INCLINATION": 97.854, "RA_OF_ASC_NODE": 357.8795, "ARG_OF_PERICENTER": 224.9908, "MEAN_ANOMALY": 133.8907, "EPHEMERIS_TYPE": 0, "CLASSIFICATION_TYPE": "U", "NORAD_CAT_ID": 31724, "ELEMENT_SET_NO": 999, "REV_AT_EPOCH": 64572, "BSTAR": 0.0020617132, "MEAN_MOTION_DOT": 9.059e-05, "MEAN_MOTION_DDOT": 0}, "tle": {"line1": "1 31724U 99025CDX 25352.27932279  .00009059  00000+0  20617-2 0  9990", "line2": "2 31724  97.8540 357.8795 0151817 224.9908 133.8907 14.49210630645728"}}, "geometry": {"type": "Point", "coordinates": [-20.35276161221197, 66.90663692844144]}}, {"type": "Feature", "properties": {"norad_id": 31725, "name": "FENGYUN 1C DEB", "group": "fengyun-1c-debris", "lat": 46.45491441391083, "lon": -160.99431539066407, "alt_km": 1269.9615580377667, "timestamp": "2025-12-18T23:35:49.344381+00:00", "meta": {"OBJECT_NAME": "FENGYUN 1C DEB", "OBJECT_ID": "1999-025CDY", "EPOCH": "2025-12-17T21:05:21.230880", "MEAN_MOTION": 12.79203585, "ECCENTRICITY": 0.06944571, "INCLINATION": 99.1801, "RA_OF_ASC_NODE": 207.8945, "ARG_OF_PERICENTER": 323.3807, "MEAN_ANOMALY": 32.1667, "EPHEMERIS_TYPE": 0, "CLASSIFICATION_TYPE": "U", "NORAD_CAT_ID": 31725, "ELEMENT_SET_NO": 999, "REV_AT_EPOCH": 86547, "BSTAR": 0.0022154725, "MEAN_MOTION_DOT": 1.348e-05, "MEAN_MOTION_DDOT": 0}, "tle": {"line1": "1 31725U 99025CDY 25351.87871795  .00001348  00000+0  22155-2 0  9993", "line2": "2 31725  99.1801 207.8945 0694457 323.3807  32.1667 12.79203585865471"}}, "geometry": {"type": "Point", "coordinates": [-160.99431539066407, 46.45491441391083]}}, {"type": "Feature", "properties": {"norad_id": 31727, "name": "FENGYUN 1C DEB", "group": "fengyun-1c-debris", "lat": 13.493040566095354, "lon": -72.63513101009866, "alt_km": 790.1049686818114, "timestamp": "2025-12-18T23:35:49.344391+00:00", "meta": {"OBJECT_NAME": "FENGYUN 1C DEB", "OBJECT_ID": "1999-025CEA", "EPOCH": "2025-12-18T13:04:28.254144", "MEAN_MOTION": 14.37079221, "ECCENTRICITY": 0.00324661, "INCLINATION": 98.8653, "RA_OF_ASC_NODE": 104.7671, "ARG_OF_PERICENTER": 322.0341, "MEAN_ANOMALY": 97.3888, "EPHEMERIS_TYPE": 0, "CLASSIFICATION_TYPE": "U", "NORAD_CAT_ID": 31727, "ELEMENT_SET_NO": 999, "REV_AT_EPOCH": 71752, "BSTAR": 0.0015162779, "MEAN_MOTION_DOT": 4.485e-05, "MEAN_MOTION_DDOT": 0}, "tle": {"line1": "1 31727U 99025CEA 25352.54477146  .00004485  00000+0  15163-2 0  9998", "line2": "2 31727  98.8653 104.7671 0032466 322.0341  97.3888 14.37079221717524"}}, "geometry": {"type": "Point", "coordinates": [-72.63513101009866, 13.493040566095354]}}, {"type": "Feature", "properties": {"norad_id": 31731, "name": "FENGYUN 1C DEB", "group": "fengyun-1c-debris", "lat": 53.519747075485974, "lon": 28.915109823361735, "alt_km": 744.901264591047, "timestamp": "2025-12-18T23:35:49.344402+00:00", "meta": {"OBJECT_NAME": "FENGYUN 1C DEB", "OBJECT_ID": "1999-025CEE", "EPOCH": "2025-11-27T02:07:07.827456", "MEAN_MOTION": 14.40063792, "ECCENTRICITY": 0.00116613, "INCLINATION": 99.3084, "RA_OF_ASC_NODE": 17.9462, "ARG_OF_PERICENTER": 144.9647, "MEAN_ANOMALY": 215.2308, "EPHEMERIS_TYPE": 0, "CLASSIFICATION_TYPE": "U", "NORAD_CAT_ID": 31731, "ELEMENT_SET_NO": 999, "REV_AT_EPOCH": 95605, "BSTAR": 0.0018623031, "MEAN_MOTION_DOT": 5.831e-05, "MEAN_MOTION_DDOT": 0}, "tle": {"line1": "1 31731U 99025CEE 25331.08828504  .00005831  00000+0  18623-2 0  9997", "line2": "2 31731  99.3084  17.9462 0011661 144.9647 215.2308 14.40063792956051"}}, "geometry": {"type": "Point", "coordinates": [28.915109823361735, 53.519747075485974]}}, {"type": "Feature", "properties": {"norad_id": 31732, "name": "FENGYUN 1C DEB", "group": "fengyun-1c-debris", "lat": 66.46783559575431, "lon": 7.196184208853107, "alt_km": 872.0747667755104, "timestamp": "2025-12-18T23:35:49.344412+00:00", "meta": {"OBJECT_NAME": "FENGYUN 1C DEB", "OBJECT_ID": "1999-025CEF", "EPOCH": "2025-12-17T13:15:59.741856", "MEAN_MOTION": 14.1225966, "ECCENTRICITY": 0.00398279, "INCLINATION": 98.5726, "RA_OF_ASC_NODE": 26.0942, "ARG_OF_PERICENTER": 231.4912, "MEAN_ANOMALY": 128.2686, "EPHEMERIS_TYPE": 0, "CLASSIFICATION_TYPE": "U", "NORAD_CAT_ID": 31732, "ELEMENT_SET_NO": 999, "REV_AT_EPOCH": 64398, "BSTAR": 0.00028723871, "MEAN_MOTION_DOT": 4.9e-06, "MEAN_MOTION_DDOT": 0}, "tle": {"line1": "1 31732U 99025CEF 25351.55277479  .00000490  00000+0  28724-3 0  9991", "line2": "2 31732  98.5726  26.0942 0039827 231.4912 128.2686 14.12259660643988"}}, "geometry": {"type": "Point", "coordinates": [7.196184208853107, 66.46783559575431]}}, {"type": "Feature", "properties": {"norad_id": 31734, "name": "FENGYUN 1C DEB", "group": "fengyun-1c-debris", "lat": -11.837907371422205, "lon": -13.242824938433925, "alt_km": 725.0588548145815, "timestamp": "2025-12-18T23:35:49.344422+00:00", "meta": {"OBJECT_NAME": "FENGYUN 1C DEB", "OBJECT_ID": "1999-025CEH", "EPOCH": "2025-12-17T05:38:30.357312", "MEAN_MOTION": 14.2902964, "ECCENTRICITY": 0.01035042, "INCLINATION": 98.4953, "RA_OF_ASC_NODE": 343.2584, "ARG_OF_PERICENTER": 354.3593, "MEAN_ANOMALY": 5.6416, "EPHEMERIS_TYPE": 0, "CLASSIFICATION_TYPE": "U", "NORAD_CAT_ID": 31734, "ELEMENT_SET_NO": 999, "REV_AT_EPOCH": 96515, "BSTAR": 0.00042036115, "MEAN_MOTION_DOT": 1.084e-05, "MEAN_MOTION_DDOT": 0}, "tle": {"line1": "1 31734U 99025CEH 25351.23507358  .00001084  00000+0  42036-3 0  9992", "line2": "2 31734  98.4953 343.2584 0103504 354.3593   5.6416 14.29029640965157"}}, "geometry": {"type": "Point", "coordinates": [-13.242824938433925, -11.837907371422205]}}, {"type": "Feature", "properties": {"norad_id": 31735, "name": "FENGYUN 1C DEB", "group": "fengyun-1c-debris", "lat": -17.92116765523234, "lon": -86.44486276533951, "alt_km": 738.6134994373479, "timestamp": "2025-12-18T23:35:49.344433+00:00", "meta": {"OBJECT_NAME": "FENGYUN 1C DEB", "OBJECT_ID": "1999-025CEJ", "EPOCH": "2025-12-18T12:41:16.561824", "MEAN_MOTION": 14.4255858, "ECCENTRICITY": 0.00588899, "INCLINATION": 98.5805, "RA_OF_ASC_NODE": 95.8967, "ARG_OF_PERICENTER": 266.6948, "MEAN_ANOMALY": 92.7503, "EPHEMERIS_TYPE": 0, "CLASSIFICATION_TYPE": "U", "NORAD_CAT_ID": 31735, "ELEMENT_SET_NO": 999, "REV_AT_EPOCH": 96748, "BSTAR": 0.00032181178, "MEAN_MOTION_DOT": 1.043e-05, "MEAN_MOTION_DDOT": 0}, "tle": {"line1": "1 31735U 99025CEJ 25352.52866391  .00001043  00000+0  32181-3 0  9996", "line2": "2 31735  98.5805  95.8967 0058889 266.6948  92.7503 14.42558580967481"}}, "geometry": {"type": "Point", "coordinates": [-86.44486276533951, -17.92116765523234]}}]}